{
  "norad_id": 54011,
  "name": "STARLINK-5124",
  "history": [
    {
      "epoch": "2026-03-28T18:51:39.312288",
      "apogee_km": 540.6398703875548,
      "perigee_km": 538.9121907872959,
      "latitude_deg": -14.190121253406428,
      "longitude_deg": 16.543680320028216,
      "semi_major_axis_km": 6917.913030587425,
      "eccentricity": 0.00012487,
      "inclination_deg": 53.2162,
      "raan_deg": 118.5458,
      "arg_perigee_deg": 88.7909,
      "mean_anomaly_deg": 271.3226,
      "mean_motion_rev_day": 15.08829321
    }
  ]
}