{"fetched_at":"2026-03-29T16:36:15Z","count":15609,"tles":[{"name":"STARLINK-5124","line1":"1 54011U 22125AZ  26087.78587167 -.00001240  00000+0 -59862-4 0  9997","line2":"2 54011  53.2162 118.5458 0001248  88.7909 271.3226 15.08829321192486","category":"Starlink"}]}